NORAD_CAT_ID,OBJECT_NAME,OBJECT_TYPE,EPOCH,MEAN_MOTION,ECCENTRICITY,INCLINATION,RA_OF_ASC_NODE,ARG_OF_PERICENTER,MEAN_ANOMALY,BSTAR,MEAN_MOTION_DOT,MEAN_MOTION_DDOT,TLE_LINE0,TLE_LINE1,TLE_LINE2,SEMIMAJOR_AXIS,PERIOD,APOGEE,PERIGEE,DECAYED
53848.0,STARLINK-4780,PAYLOAD,2023-05-04 21:47:22,15.08853655,9.37e-05,53.217,281.619,71.4153,288.6941,0.0002138,3.118e-05,0.0,0 STARLINK-4780,1 53848U 22114AG  23124.90790378  .00003118  00000-0  21380-3 0  9993,2 53848  53.2170 281.6190 0000937  71.4153 288.6941 15.08853655 35467,6917.839,95.437,540.352,539.055,0.0
53848.0,STARLINK-4780,PAYLOAD,2023-05-05 16:52:01,15.08840719,0.000112,53.2183,278.0514,97.1144,262.9975,0.00012338,1.676e-05,0.0,0 STARLINK-4780,1 53848U 22114AG  23125.70279200  .00001676  00000-0  12338-3 0  9998,2 53848  53.2183 278.0514 0001120  97.1144 262.9975 15.08840719 35583,6917.878,95.438,540.518,538.968,0.0
53848.0,STARLINK-4780,PAYLOAD,2023-05-05 20:02:47,15.08846727,8.09e-05,53.2159,277.4547,97.221,262.8874,0.00015121,2.12e-05,0.0,0 STARLINK-4780,1 53848U 22114AG  23125.83526802  .00002120  00000-0  15121-3 0  9993,2 53848  53.2159 277.4547 0000809  97.2210 262.8874 15.08846727 36148,6917.86,95.437,540.284,539.165,0.0
53848.0,STARLINK-4780,PAYLOAD,2023-05-06 13:32:01,15.08846465,0.0001328,53.2161,274.1832,102.5726,257.5415,0.00020407,2.962e-05,0.0,0 STARLINK-4780,1 53848U 22114AG  23126.56390969  .00002962  00000-0  20407-3 0  9994,2 53848  53.2161 274.1832 0001328 102.5726 257.5415 15.08846465 36254,6917.861,95.437,540.644,538.807,0.0
53848.0,STARLINK-4780,PAYLOAD,2023-05-07 02:15:06,15.08848585,8.84e-05,53.2159,271.8056,79.0818,281.0273,0.00023414,3.441e-05,0.0,0 STARLINK-4780,1 53848U 22114AG  23127.09382756  .00003441  00000-0  23414-3 0  9992,2 53848  53.2159 271.8056 0000884  79.0818 281.0273 15.08848585 35796,6917.854,95.437,540.331,539.108,0.0
53848.0,STARLINK-4780,PAYLOAD,2023-05-07 13:22:49,15.08835896,9.27e-05,53.2151,269.7253,120.9527,239.1557,-3.6938e-05,-8.75e-06,0.0,0 STARLINK-4780,1 53848U 22114AG  23127.55751184 -.00000875  00000-0 -36938-4 0  9994,2 53848  53.2151 269.7253 0000927 120.9527 239.1557 15.08835896 35862,6917.893,95.438,540.399,539.117,0.0
53848.0,STARLINK-4780,PAYLOAD,2023-05-07 16:33:35,15.08841006,6.92e-05,53.2161,269.1301,99.847,260.26,8.393e-05,1.048e-05,0.0,0 STARLINK-4780,1 53848U 22114AG  23127.68998968  .00001048  00000-0  83930-4 0  9996,2 53848  53.2161 269.1301 0000692  99.8470 260.2600 15.08841006 36428,6917.877,95.437,540.221,539.264,0.0
53848.0,STARLINK-4780,PAYLOAD,2023-05-08 16:24:22,15.08846941,7.43e-05,53.2154,264.6702,101.7796,258.328,0.0002632,3.904e-05,0.0,0 STARLINK-4780,1 53848U 22114AG  23128.68358969  .00003904  00000-0  26320-3 0  9990,2 53848  53.2154 264.6702 0000743 101.7796 258.3280 15.08846941 36038,6917.859,95.437,540.238,539.21,0.0
53848.0,STARLINK-4780,PAYLOAD,2023-05-09 13:04:23,15.08839436,7.5e-05,53.2147,260.8052,96.7695,263.3382,0.00016171,2.287e-05,0.0,0 STARLINK-4780,1 53848U 22114AG  23129.54471464  .00002287  00000-0  16171-3 0  9998,2 53848  53.2147 260.8052 0000750  96.7695 263.3382 15.08839436 36709,6917.882,95.438,540.266,539.228,0.0
53848.0,STARLINK-4780,PAYLOAD,2023-05-10 12:55:10,15.0883808,7.7e-05,53.2162,256.3398,90.7728,269.3352,0.00011137,1.485e-05,0.0,0 STARLINK-4780,1 53848U 22114AG  23130.53831775  .00001485  00000-0  11137-3 0  9990,2 53848  53.2162 256.3398 0000770  90.7728 269.3352 15.08838080 36855,6917.886,95.438,540.284,539.219,0.0
53848.0,STARLINK-4780,PAYLOAD,2023-05-10 16:05:56,15.08845623,8.89e-05,53.2162,255.7439,89.8928,270.2166,9.5418e-05,1.231e-05,0.0,0 STARLINK-4780,1 53848U 22114AG  23130.67079381  .00001231  00000-0  95418-4 0  9996,2 53848  53.2162 255.7439 0000889  89.8928 270.2166 15.08845623 36334,6917.863,95.437,540.343,539.113,0.0
53848.0,STARLINK-4780,PAYLOAD,2023-05-11 01:38:15,15.0884773,8.33e-05,53.2154,253.9632,90.0204,270.0883,0.00017473,2.495e-05,0.0,0 STARLINK-4780,1 53848U 22114AG  23131.06823346  .00002495  00000-0  17473-3 0  9995,2 53848  53.2154 253.9632 0000833  90.0204 270.0883 15.08847730 36931,6917.857,95.437,540.298,539.146,0.0
53848.0,STARLINK-4780,PAYLOAD,2023-05-11 14:21:20,15.08844464,8.99e-05,53.2155,251.5875,80.6044,279.505,0.0001924,2.776e-05,0.0,0 STARLINK-4780,1 53848U 22114AG  23131.59815728  .00002776  00000-0  19240-3 0  9994,2 53848  53.2155 251.5875 0000899  80.6044 279.5050 15.08844464 36474,6917.867,95.437,540.354,539.11,0.0
53848.0,STARLINK-4780,PAYLOAD,2023-05-12 01:29:02,15.08847326,7.6e-05,53.2151,249.5045,92.2462,267.8617,0.00016972,2.415e-05,0.0,0 STARLINK-4780,1 53848U 22114AG  23132.06183422  .00002415  00000-0  16972-3 0  9995,2 53848  53.2151 249.5045 0000760  92.2462 267.8617 15.08847326 37083,6917.858,95.437,540.249,539.197,0.0
53848.0,STARLINK-4780,PAYLOAD,2023-05-13 12:27:31,15.08842525,9.34e-05,53.2167,242.9605,93.7462,266.3637,8.6765e-05,1.093e-05,0.0,0 STARLINK-4780,1 53848U 22114AG  23133.51911809  .00001093  00000-0  86765-4 0  9993,2 53848  53.2167 242.9605 0000934  93.7462 266.3637 15.08842525 36764,6917.873,95.437,540.384,539.092,0.0
53848.0,STARLINK-4780,PAYLOAD,2023-05-14 13:53:42,15.0883892,0.0001084,53.2161,238.2014,103.5519,256.5594,0.0001012,1.323e-05,0.0,0 STARLINK-4780,1 53848U 22114AG  23134.57896078  .00001323  00000-0  10120-3 0  9997,2 53848  53.2161 238.2014 0001084 103.5519 256.5594 15.08838920 36925,6917.884,95.438,540.499,538.999,0.0
53848.0,STARLINK-4780,PAYLOAD,2023-05-14 15:29:05,15.08839669,0.000115,53.2162,237.9037,110.2118,249.8998,0.00010929,1.452e-05,0.0,0 STARLINK-4780,1 53848U 22114AG  23134.64520018  .00001452  00000-0  10929-3 0  9993,2 53848  53.2162 237.9037 0001150 110.2118 249.8998 15.08839669 37476,6917.881,95.438,540.542,538.951,0.0
53848.0,STARLINK-4780,PAYLOAD,2023-05-15 12:09:06,15.08840313,0.0001063,53.2165,234.0401,105.8635,254.2475,1.6076e-06,-2.62e-06,0.0,0 STARLINK-4780,1 53848U 22114AG  23135.50632504 -.00000262  00000-0  16076-5 0  9993,2 53848  53.2165 234.0401 0001063 105.8635 254.2475 15.08840313 37602,6917.879,95.438,540.48,539.009,0.0
53848.0,STARLINK-4780,PAYLOAD,2023-05-15 13:44:29,15.08834277,0.0001014,53.2158,233.7452,104.2494,255.861,0.00013326,1.833e-05,0.0,0 STARLINK-4780,1 53848U 22114AG  23135.57256649  .00001833  00000-0  13326-3 0  9999,2 53848  53.2158 233.7452 0001014 104.2494 255.8610 15.08834277 37079,6917.898,95.438,540.464,539.061,0.0
53848.0,STARLINK-4780,PAYLOAD,2023-05-15 15:19:52,15.08847219,0.0001019,53.2162,233.4467,103.7068,256.4037,2.1155e-05,4.9e-07,0.0,0 STARLINK-4780,1 53848U 22114AG  23135.63880003  .00000049  00000-0  21155-4 0  9991,2 53848  53.2162 233.4467 0001019 103.7068 256.4037 15.08847219 37084,6917.858,95.437,540.428,539.018,0.0
53848.0,STARLINK-4780,PAYLOAD,2023-05-16 11:59:53,15.08842728,0.0001303,53.2164,229.5812,119.253,240.8592,-5.0013e-05,-1.084e-05,0.0,0 STARLINK-4780,1 53848U 22114AG  23136.49992681 -.00001084  00000-0 -50013-4 0  9999,2 53848  53.2164 229.5812 0001303 119.2530 240.8592 15.08842728 37216,6917.872,95.437,540.638,538.836,0.0
53848.0,STARLINK-4780,PAYLOAD,2023-05-16 15:10:39,15.08837625,0.0001172,53.2166,228.9858,102.2426,257.8697,9.5128e-05,1.226e-05,0.0,0 STARLINK-4780,1 53848U 22114AG  23136.63240652  .00001226  00000-0  95128-4 0  9991,2 53848  53.2166 228.9858 0001172 102.2426 257.8697 15.08837625 37776,6917.888,95.438,540.563,538.942,0.0
53848.0,STARLINK-4780,PAYLOAD,2023-05-17 15:01:26,15.0884342,0.0001106,53.2164,224.5257,88.2733,271.8386,5.7256e-05,6.24e-06,0.0,0 STARLINK-4780,1 53848U 22114AG  23137.62600536  .00000624  00000-0  57256-4 0  9993,2 53848  53.2164 224.5257 0001106  88.2733 271.8386 15.08843420 37388,6917.87,95.437,540.5,538.97,0.0
53848.0,STARLINK-4780,PAYLOAD,2023-05-18 10:06:04,15.08837182,0.0001197,53.2165,220.9577,87.5982,272.5147,2.8157e-05,1.6e-06,0.0,0 STARLINK-4780,1 53848U 22114AG  23138.42089084  .00000160  00000-0  28157-4 0  9994,2 53848  53.2165 220.9577 0001197  87.5982 272.5147 15.08837182 37507,6917.889,95.438,540.582,538.926,0.0
53848.0,STARLINK-4780,PAYLOAD,2023-05-18 13:16:51,15.08839046,0.0001194,53.2162,220.3631,87.1787,272.9342,4.052e-05,3.57e-06,0.0,0 STARLINK-4780,1 53848U 22114AG  23138.55336938  .00000357  00000-0  40520-4 0  9997,2 53848  53.2162 220.3631 0001194  87.1787 272.9342 15.08839046 38069,6917.883,95.438,540.574,538.922,0.0
53848.0,STARLINK-4780,PAYLOAD,2023-05-18 14:52:14,15.0884049,0.0001199,53.2161,220.0655,87.5681,272.5449,5.2011e-05,5.4e-06,0.0,0 STARLINK-4780,1 53848U 22114AG  23138.61960801  .00000540  00000-0  52011-4 0  9998,2 53848  53.2161 220.0655 0001199  87.5681 272.5449 15.08840490 38073,6917.879,95.438,540.573,538.914,0.0
53848.0,STARLINK-4780,PAYLOAD,2023-05-19 09:56:51,15.08844659,0.0001142,53.2158,216.4974,86.798,273.3143,8.4496e-05,1.057e-05,0.0,0 STARLINK-4780,1 53848U 22114AG  23139.41448340  .00001057  00000-0  84496-4 0  9992,2 53848  53.2158 216.4974 0001142  86.7980 273.3143 15.08844659 37657,6917.866,95.437,540.521,538.941,0.0
53848.0,STARLINK-4780,PAYLOAD,2023-05-19 11:32:14,15.08846791,0.0001115,53.216,216.1995,89.4522,270.6598,7.5561e-05,9.15e-06,0.0,0 STARLINK-4780,1 53848U 22114AG  23139.48072209  .00000915  00000-0  75561-4 0  9991,2 53848  53.2160 216.1995 0001115  89.4522 270.6598 15.08846791 38207,6917.86,95.437,540.496,538.953,0.0
53848.0,STARLINK-4780,PAYLOAD,2023-05-20 14:33:47,15.08851674,0.000119,53.2162,211.1432,96.2048,263.908,0.00013085,1.796e-05,0.0,0 STARLINK-4780,1 53848U 22114AG  23140.60679508  .00001796  00000-0  13085-3 0  9992,2 53848  53.2162 211.1432 0001190  96.2048 263.9080 15.08851674 37837,6917.845,95.437,540.533,538.886,0.0
53848.0,STARLINK-4780,PAYLOAD,2023-05-21 04:52:15,15.08845197,0.0001527,53.2165,208.4632,113.2491,246.8662,1.1721e-05,-1.01e-06,0.0,0 STARLINK-4780,1 53848U 22114AG  23141.20296063 -.00000101  00000-0  11721-4 0  9996,2 53848  53.2165 208.4632 0001527 113.2491 246.8662 15.08845197 37926,6917.865,95.437,540.786,538.673,0.0
